[{"OBJECT_NAME":"STARLINK-6341","OBJECT_ID":"2023-078V","EPOCH":"2026-03-09T23:12:07.309728","MEAN_MOTION":14.9832757,"ECCENTRICITY":0.00028597,"INCLINATION":70.0001,"RA_OF_ASC_NODE":323.8155,"ARG_OF_PERICENTER":265.5621,"MEAN_ANOMALY":94.5211,"EPHEMERIS_TYPE":0,"CLASSIFICATION_TYPE":"U","NORAD_CAT_ID":56786,"ELEMENT_SET_NO":999,"REV_AT_EPOCH":15321,"BSTAR":-2.7486414e-5,"MEAN_MOTION_DOT":-4.21e-6,"MEAN_MOTION_DDOT":0},{"OBJECT_NAME":"PSLV DEB","OBJECT_ID":"2001-049CM","EPOCH":"2026-03-09T17:27:22.548384","MEAN_MOTION":14.90404456,"ECCENTRICITY":0.00458218,"INCLINATION":98.0898,"RA_OF_ASC_NODE":119.3906,"ARG_OF_PERICENTER":199.2732,"MEAN_ANOMALY":281.2941,"EPHEMERIS_TYPE":0,"CLASSIFICATION_TYPE":"U","NORAD_CAT_ID":27141,"ELEMENT_SET_NO":999,"REV_AT_EPOCH":30717,"BSTAR":0.00021410628,"MEAN_MOTION_DOT":2.065e-5,"MEAN_MOTION_DDOT":0}]
